{
 "type": "FeatureCollection",
 "features": [
  {
   "type": "Feature",
   "id": 1,
   "properties": {
    "id": "D01",
    "name": "Alder District",
    "zone": "residential",
    "households": 3719,
    "area_km2": 1.81
   },
   "geometry": {
    "type": "Polygon",
    "coordinates": [
     [
      [
       -122.71758908299208,
       45.47267296695709
      ],
      [
       -122.68365940515548,
       45.47156562137604
      ],
      [
       -122.68383663599045,
       45.50041112001737
      ],
      [
       -122.71700229696036,
       45.50134134801229
      ],
      [
       -122.71728359303475,
       45.47178390288353
      ]
     ]
    ]
   }
  },
  {
   "type": "Feature",
   "id": 2,
   "properties": {
    "id": "D02",
    "name": "Birch District",
    "zone": "commercial",
    "households": 1603,
    "area_km2": 5.32
   },
   "geometry": {
    "type": "Polygon",
    "coordinates": [
     [
      [
       -122.67666733441354,
       45.47115824103356
      ],
      [
       -122.6487609099269,
       45.47108297395706
      ],
      [
       -122.64911675466301,
       45.49704501819611
      ],
      [
       -122.6780121758938,
       45.49668890285493
      ],
      [
       -122.67798988089562,
       45.471955020189284
      ]
     ]
    ]
   }
  },
  {
   "type": "Feature",
   "id": 3,
   "properties": {
    "id": "D03",
    "name": "Cedar District",
    "zone": "industrial",
    "households": 3852,
    "area_km2": 3.4
   },
   "geometry": {
    "type": "Polygon",
    "coordinates": [
     [
      [
       -122.63699525699616,
       45.47205029964447
      ],
      [
       -122.61000897893906,
       45.47189942073822
      ],
      [
       -122.61120477972031,
       45.496113787213964
      ],
      [
       -122.63733927521706,
       45.49703438017766
      ],
      [
       -122.63746153054238,
       45.47145756220818
      ]
     ]
    ]
   }
  },
  {
   "type": "Feature",
   "id": 4,
   "properties": {
    "id": "D04",
    "name": "Dogwood District",
    "zone": "residential",
    "households": 2333,
    "area_km2": 3.44
   },
   "geometry": {
    "type": "Polygon",
    "coordinates": [
     [
      [
       -122.59778067502975,
       45.47227493906021
      ],
      [
       -122.56967703049183,
       45.4726083855629
      ],
      [
       -122.5705715960741,
       45.49702237109343
      ],
      [
       -122.59788844404221,
       45.496203656951586
      ],
      [
       -122.59671226987838,
       45.472645163059234
      ]
     ]
    ]
   }
  },
  {
   "type": "Feature",
   "id": 5,
   "properties": {
    "id": "D05",
    "name": "Elm District",
    "zone": "commercial",
    "households": 1156,
    "area_km2": 4.42
   },
   "geometry": {
    "type": "Polygon",
    "coordinates": [
     [
      [
       -122.71743506655693,
       45.50617083128293
      ],
      [
       -122.69050439696312,
       45.50455080760767
      ],
      [
       -122.68941796733738,
       45.527892213642595
      ],
      [
       -122.71707124600411,
       45.527365661442275
      ],
      [
       -122.7174097717166,
       45.506101278146105
      ]
     ]
    ]
   }
  },
  {
   "type": "Feature",
   "id": 6,
   "properties": {
    "id": "D06",
    "name": "Fir District",
    "zone": "industrial",
    "households": 822,
    "area_km2": 2.76
   },
   "geometry": {
    "type": "Polygon",
    "coordinates": [
     [
      [
       -122.677333427763,
       45.50477289732297
      ],
      [
       -122.64513174141646,
       45.50539393838247
      ],
      [
       -122.64620914001466,
       45.53058195002873
      ],
      [
       -122.67858603343964,
       45.529851832283036
      ],
      [
       -122.67760825595857,
       45.50520346482595
      ]
     ]
    ]
   }
  },
  {
   "type": "Feature",
   "id": 7,
   "properties": {
    "id": "D07",
    "name": "Ginkgo District",
    "zone": "residential",
    "households": 2293,
    "area_km2": 2.81
   },
   "geometry": {
    "type": "Polygon",
    "coordinates": [
     [
      [
       -122.63704862270356,
       45.50571032555898
      ],
      [
       -122.60543012409211,
       45.50531379540761
      ],
      [
       -122.60656597309114,
       45.526992777566115
      ],
      [
       -122.63768837151528,
       45.52712401811282
      ],
      [
       -122.63763910279275,
       45.50542282493909
      ]
     ]
    ]
   }
  },
  {
   "type": "Feature",
   "id": 8,
   "properties": {
    "id": "D08",
    "name": "Hazel District",
    "zone": "commercial",
    "households": 3894,
    "area_km2": 4.68
   },
   "geometry": {
    "type": "Polygon",
    "coordinates": [
     [
      [
       -122.59849660215377,
       45.505939403434596
      ],
      [
       -122.5698010149479,
       45.50607881887754
      ],
      [
       -122.56912435441018,
       45.529295532524586
      ],
      [
       -122.59677710876466,
       45.52867377501726
      ],
      [
       -122.59680258325338,
       45.50584280403455
      ]
     ]
    ]
   }
  },
  {
   "type": "Feature",
   "id": 9,
   "properties": {
    "id": "D09",
    "name": "Ironwood District",
    "zone": "industrial",
    "households": 3436,
    "area_km2": 2.61
   },
   "geometry": {
    "type": "Polygon",
    "coordinates": [
     [
      [
       -122.71792918190957,
       45.53908772985141
      ],
      [
       -122.68876524748804,
       45.53869682071607
      ],
      [
       -122.68902452030183,
       45.565340988775105
      ],
      [
       -122.71709375784397,
       45.566789270480484
      ],
      [
       -122.71815289649963,
       45.53841365502279
      ]
     ]
    ]
   }
  },
  {
   "type": "Feature",
   "id": 10,
   "properties": {
    "id": "D10",
    "name": "Juniper District",
    "zone": "residential",
    "households": 2057,
    "area_km2": 3.72
   },
   "geometry": {
    "type": "Polygon",
    "coordinates": [
     [
      [
       -122.67845853505136,
       45.53913970230023
      ],
      [
       -122.64857571792604,
       45.538098928670095
      ],
      [
       -122.64803164017202,
       45.56210862028599
      ],
      [
       -122.67680552879573,
       45.56228660821915
      ],
      [
       -122.67713866982461,
       45.53819885961215
      ]
     ]
    ]
   }
  },
  {
   "type": "Feature",
   "id": 11,
   "properties": {
    "id": "D11",
    "name": "Katsura District",
    "zone": "commercial",
    "households": 2201,
    "area_km2": 4.73
   },
   "geometry": {
    "type": "Polygon",
    "coordinates": [
     [
      [
       -122.63760171875954,
       45.539315392891574
      ],
      [
       -122.60946859869958,
       45.53823913523804
      ],
      [
       -122.60769175086023,
       45.56423424927394
      ],
      [
       -122.63835003647804,
       45.56406160185735
      ],
      [
       -122.6385687819481,
       45.53786900636803
      ]
     ]
    ]
   }
  },
  {
   "type": "Feature",
   "id": 12,
   "properties": {
    "id": "D12",
    "name": "Larch District",
    "zone": "industrial",
    "households": 3947,
    "area_km2": 3.26
   },
   "geometry": {
    "type": "Polygon",
    "coordinates": [
     [
      [
       -122.5966528049469,
       45.537751759211226
      ],
      [
       -122.56714777641297,
       45.53904426912467
      ],
      [
       -122.56534811912776,
       45.56610716072719
      ],
      [
       -122.59671443376541,
       45.566046983877825
      ],
      [
       -122.59738503847122,
       45.5387617913882
      ]
     ]
    ]
   }
  }
 ]
}
