{"type":"FeatureCollection","features":[{"type":"Feature","properties":{"id":"N010","name":"Boise","coalition":"North/NE","area_km2":1.04,"perimeter_km":4.63},"geometry":{"type":"Polygon","coordinates":[[[-122.6647,45.5546],[-122.6787,45.5546],[-122.6788,45.5485],[-122.6778,45.545],[-122.6761,45.5436],[-122.6698,45.5478],[-122.6616,45.5483],[-122.6616,45.5495],[-122.6637,45.5495],[-122.6637,45.5508],[-122.6647,45.5508],[-122.6647,45.5546]]]}},{"type":"Feature","properties":{"id":"N015","name":"Buckman","coalition":"Southeast","area_km2":2.98,"perimeter_km":7.42},"geometry":{"type":"Polygon","coordinates":[[[-122.6676,45.523],[-122.6708,45.5132],[-122.6673,45.5123],[-122.6371,45.5121],[-122.6373,45.5229],[-122.6516,45.5229],[-122.6516,45.5236],[-122.6533,45.5229],[-122.6676,45.523]]]}},{"type":"Feature","properties":{"id":"N024","name":"Eliot","coalition":"North/NE","area_km2":2.21,"perimeter_km":6.42},"geometry":{"type":"Polygon","coordinates":[[[-122.6616,45.5483],[-122.668,45.5483],[-122.668,45.5468],[-122.6707,45.5468],[-122.672,45.5459],[-122.672,45.5437],[-122.6755,45.544],[-122.6829,45.538],[-122.6742,45.5319],[-122.6684,45.5351],[-122.6586,45.5351],[-122.6586,45.5483],[-122.6616,45.5483]]]}},{"type":"Feature","properties":{"id":"N040","name":"Irvington","coalition":"North/NE","area_km2":1.67,"perimeter_km":5.96},"geometry":{"type":"Polygon","coordinates":[[[-122.6557,45.5483],[-122.6586,45.5483],[-122.6586,45.5351],[-122.6391,45.5352],[-122.6391,45.5421],[-122.6442,45.5421],[-122.6442,45.5452],[-122.6545,45.5452],[-122.6545,45.5483],[-122.6557,45.5483]]]}},{"type":"Feature","properties":{"id":"N042","name":"Kerns","coalition":"Southeast","area_km2":2.11,"perimeter_km":8.93},"geometry":{"type":"Polygon","coordinates":[[[-122.6496,45.5297],[-122.6619,45.5252],[-122.6665,45.5279],[-122.6693,45.5275],[-122.668,45.5261],[-122.6676,45.523],[-122.6533,45.5229],[-122.6516,45.5236],[-122.6516,45.5229],[-122.6373,45.5229],[-122.6373,45.5193],[-122.632,45.5193],[-122.6307,45.5345],[-122.6359,45.5307],[-122.6496,45.5297]]]}},{"type":"Feature","properties":{"id":"N047","name":"Lloyd","coalition":"North/NE","area_km2":1.33,"perimeter_km":5.15},"geometry":{"type":"Polygon","coordinates":[[[-122.6505,45.535],[-122.6684,45.5351],[-122.6742,45.5319],[-122.6693,45.5275],[-122.6665,45.5279],[-122.6619,45.5252],[-122.6531,45.5287],[-122.6546,45.5294],[-122.6546,45.5315],[-122.6505,45.5315],[-122.6505,45.535]]]}},{"type":"Feature","properties":{"id":"N075","name":"Sabin","coalition":"North/NE","area_km2":0.94,"perimeter_km":4.13},"geometry":{"type":"Polygon","coordinates":[[[-122.6429,45.5577],[-122.6517,45.5577],[-122.6518,45.5555],[-122.6557,45.5545],[-122.6557,45.5483],[-122.6442,45.5482],[-122.6442,45.5518],[-122.642,45.5519],[-122.642,45.5554],[-122.6429,45.5554],[-122.6429,45.5577]]]}},{"type":"Feature","properties":{"id":"N083","name":"Sullivan'S Gulch","coalition":"North/NE","area_km2":0.71,"perimeter_km":3.89},"geometry":{"type":"Polygon","coordinates":[[[-122.6505,45.535],[-122.6504,45.5332],[-122.6495,45.5324],[-122.6496,45.5297],[-122.6359,45.5307],[-122.6307,45.5345],[-122.6307,45.5352],[-122.6505,45.535]]]}}]}
