{
 "type": "FeatureCollection",
 "features": [
  {
   "type": "Feature",
   "id": 1000,
   "properties": {
    "id": "S01",
    "name": "Station 01",
    "kind": "transit",
    "capacity": 421,
    "online": true
   },
   "geometry": {
    "type": "Point",
    "coordinates": [
     -122.60948,
     45.52512
    ]
   }
  },
  {
   "type": "Feature",
   "id": 1001,
   "properties": {
    "id": "S02",
    "name": "Station 02",
    "kind": "water",
    "capacity": 872,
    "online": true
   },
   "geometry": {
    "type": "Point",
    "coordinates": [
     -122.6326,
     45.50739
    ]
   }
  },
  {
   "type": "Feature",
   "id": 1002,
   "properties": {
    "id": "S03",
    "name": "Station 03",
    "kind": "power",
    "capacity": 965,
    "online": true
   },
   "geometry": {
    "type": "Point",
    "coordinates": [
     -122.60587,
     45.5578
    ]
   }
  },
  {
   "type": "Feature",
   "id": 1003,
   "properties": {
    "id": "S04",
    "name": "Station 04",
    "kind": "transit",
    "capacity": 292,
    "online": false
   },
   "geometry": {
    "type": "Point",
    "coordinates": [
     -122.65413,
     45.52138
    ]
   }
  },
  {
   "type": "Feature",
   "id": 1004,
   "properties": {
    "id": "S05",
    "name": "Station 05",
    "kind": "water",
    "capacity": 914,
    "online": true
   },
   "geometry": {
    "type": "Point",
    "coordinates": [
     -122.69973,
     45.5161
    ]
   }
  },
  {
   "type": "Feature",
   "id": 1005,
   "properties": {
    "id": "S06",
    "name": "Station 06",
    "kind": "power",
    "capacity": 638,
    "online": false
   },
   "geometry": {
    "type": "Point",
    "coordinates": [
     -122.69617,
     45.51678
    ]
   }
  },
  {
   "type": "Feature",
   "id": 1006,
   "properties": {
    "id": "S07",
    "name": "Station 07",
    "kind": "transit",
    "capacity": 980,
    "online": false
   },
   "geometry": {
    "type": "Point",
    "coordinates": [
     -122.60023,
     45.47016
    ]
   }
  },
  {
   "type": "Feature",
   "id": 1007,
   "properties": {
    "id": "S08",
    "name": "Station 08",
    "kind": "water",
    "capacity": 638,
    "online": true
   },
   "geometry": {
    "type": "Point",
    "coordinates": [
     -122.69355,
     45.53577
    ]
   }
  },
  {
   "type": "Feature",
   "id": 1008,
   "properties": {
    "id": "S09",
    "name": "Station 09",
    "kind": "power",
    "capacity": 737,
    "online": true
   },
   "geometry": {
    "type": "Point",
    "coordinates": [
     -122.67131,
     45.48102
    ]
   }
  },
  {
   "type": "Feature",
   "id": 1009,
   "properties": {
    "id": "S10",
    "name": "Station 10",
    "kind": "transit",
    "capacity": 440,
    "online": false
   },
   "geometry": {
    "type": "Point",
    "coordinates": [
     -122.63365,
     45.55314
    ]
   }
  },
  {
   "type": "Feature",
   "id": 1010,
   "properties": {
    "id": "S11",
    "name": "Station 11",
    "kind": "water",
    "capacity": 312,
    "online": false
   },
   "geometry": {
    "type": "Point",
    "coordinates": [
     -122.60973,
     45.49844
    ]
   }
  },
  {
   "type": "Feature",
   "id": 1011,
   "properties": {
    "id": "S12",
    "name": "Station 12",
    "kind": "power",
    "capacity": 166,
    "online": true
   },
   "geometry": {
    "type": "Point",
    "coordinates": [
     -122.59445,
     45.53954
    ]
   }
  },
  {
   "type": "Feature",
   "id": 1012,
   "properties": {
    "id": "S13",
    "name": "Station 13",
    "kind": "transit",
    "capacity": 148,
    "online": true
   },
   "geometry": {
    "type": "Point",
    "coordinates": [
     -122.62701,
     45.53253
    ]
   }
  },
  {
   "type": "Feature",
   "id": 1013,
   "properties": {
    "id": "S14",
    "name": "Station 14",
    "kind": "water",
    "capacity": 109,
    "online": true
   },
   "geometry": {
    "type": "Point",
    "coordinates": [
     -122.60193,
     45.47198
    ]
   }
  },
  {
   "type": "Feature",
   "id": 1014,
   "properties": {
    "id": "S15",
    "name": "Station 15",
    "kind": "power",
    "capacity": 204,
    "online": true
   },
   "geometry": {
    "type": "Point",
    "coordinates": [
     -122.59458,
     45.48608
    ]
   }
  },
  {
   "type": "Feature",
   "id": 1015,
   "properties": {
    "id": "S16",
    "name": "Station 16",
    "kind": "transit",
    "capacity": 274,
    "online": false
   },
   "geometry": {
    "type": "Point",
    "coordinates": [
     -122.71401,
     45.55071
    ]
   }
  },
  {
   "type": "Feature",
   "id": 1016,
   "properties": {
    "id": "S17",
    "name": "Station 17",
    "kind": "water",
    "capacity": 985,
    "online": true
   },
   "geometry": {
    "type": "Point",
    "coordinates": [
     -122.57126,
     45.50271
    ]
   }
  },
  {
   "type": "Feature",
   "id": 1017,
   "properties": {
    "id": "S18",
    "name": "Station 18",
    "kind": "power",
    "capacity": 809,
    "online": true
   },
   "geometry": {
    "type": "Point",
    "coordinates": [
     -122.56001,
     45.53722
    ]
   }
  },
  {
   "type": "Feature",
   "id": 1018,
   "properties": {
    "id": "S19",
    "name": "Station 19",
    "kind": "transit",
    "capacity": 84,
    "online": true
   },
   "geometry": {
    "type": "Point",
    "coordinates": [
     -122.622,
     45.49023
    ]
   }
  },
  {
   "type": "Feature",
   "id": 1019,
   "properties": {
    "id": "S20",
    "name": "Station 20",
    "kind": "water",
    "capacity": 481,
    "online": true
   },
   "geometry": {
    "type": "Point",
    "coordinates": [
     -122.65192,
     45.55412
    ]
   }
  },
  {
   "type": "Feature",
   "id": 1020,
   "properties": {
    "id": "S21",
    "name": "Station 21",
    "kind": "power",
    "capacity": 947,
    "online": true
   },
   "geometry": {
    "type": "Point",
    "coordinates": [
     -122.61604,
     45.52883
    ]
   }
  },
  {
   "type": "Feature",
   "id": 1021,
   "properties": {
    "id": "S22",
    "name": "Station 22",
    "kind": "transit",
    "capacity": 114,
    "online": false
   },
   "geometry": {
    "type": "Point",
    "coordinates": [
     -122.6088,
     45.50938
    ]
   }
  },
  {
   "type": "Feature",
   "id": 1022,
   "properties": {
    "id": "S23",
    "name": "Station 23",
    "kind": "water",
    "capacity": 782,
    "online": false
   },
   "geometry": {
    "type": "Point",
    "coordinates": [
     -122.6333,
     45.49935
    ]
   }
  },
  {
   "type": "Feature",
   "id": 1023,
   "properties": {
    "id": "S24",
    "name": "Station 24",
    "kind": "power",
    "capacity": 967,
    "online": true
   },
   "geometry": {
    "type": "Point",
    "coordinates": [
     -122.60134,
     45.49157
    ]
   }
  }
 ]
}
